{"fetched_at":"2026-07-19T17:31:09.790Z","source":"https://celestrak.org/NORAD/elements/gp.php?GROUP=oneweb&FORMAT=JSON","constellation":"oneweb","records":[{"OBJECT_NAME":"ONEWEB-0356","OBJECT_ID":"2021-090E","EPOCH":"2026-07-19T04:41:44.813184","CLASSIFICATION_TYPE":"U","MEAN_MOTION":13.20771106,"ECCENTRICITY":0.00012372,"INCLINATION":87.9181,"RA_OF_ASC_NODE":268.0566,"ARG_OF_PERICENTER":99.0969,"MEAN_ANOMALY":261.0304,"EPHEMERIS_TYPE":0,"NORAD_CAT_ID":49283,"ELEMENT_SET_NO":999,"REV_AT_EPOCH":23405,"BSTAR":0.00021767987,"MEAN_MOTION_DOT":0.00000101,"MEAN_MOTION_DDOT":0},{"OBJECT_NAME":"ONEWEB-0358","OBJECT_ID":"2021-090F","EPOCH":"2026-07-19T05:33:50.846400","CLASSIFICATION_TYPE":"U","MEAN_MOTION":13.20769888,"ECCENTRICITY":0.00019461,"INCLINATION":87.9182,"RA_OF_ASC_NODE":268.0568,"ARG_OF_PERICENTER":95.5672,"MEAN_ANOMALY":264.5683,"EPHEMERIS_TYPE":0,"NORAD_CAT_ID":49284,"ELEMENT_SET_NO":999,"REV_AT_EPOCH":23478,"BSTAR":0.00020328529,"MEAN_MOTION_DOT":9.6e-7,"MEAN_MOTION_DDOT":0},{"OBJECT_NAME":"ONEWEB-0359","OBJECT_ID":"2021-090G","EPOCH":"2026-07-19T05:20:31.626528","CLASSIFICATION_TYPE":"U","MEAN_MOTION":13.20769945,"ECCENTRICITY":0.00020435,"INCLINATION":87.9181,"RA_OF_ASC_NODE":268.0508,"ARG_OF_PERICENTER":89.4466,"MEAN_ANOMALY":270.6902,"EPHEMERIS_TYPE":0,"NORAD_CAT_ID":49285,"ELEMENT_SET_NO":999,"REV_AT_EPOCH":23476,"BSTAR":0.00017606453,"MEAN_MOTION_DOT":8.5e-7,"MEAN_MOTION_DDOT":0},{"OBJECT_NAME":"ONEWEB-0360","OBJECT_ID":"2021-090H","EPOCH":"2026-07-19T05:06:00.243648","CLASSIFICATION_TYPE":"U","MEAN_MOTION":13.20771917,"ECCENTRICITY":0.00021778,"INCLINATION":87.918,"RA_OF_ASC_NODE":268.0594,"ARG_OF_PERICENTER":96.857,"MEAN_ANOMALY":263.2811,"EPHEMERIS_TYPE":0,"NORAD_CAT_ID":49286,"ELEMENT_SET_NO":999,"REV_AT_EPOCH":23407,"BSTAR":0.00032135575,"MEAN_MOTION_DOT":0.00000144,"MEAN_MOTION_DDOT":0},{"OBJECT_NAME":"ONEWEB-0361","OBJECT_ID":"2021-090J","EPOCH":"2026-07-19T04:39:18.401472","CLASSIFICATION_TYPE":"U","MEAN_MOTION":13.20771965,"ECCENTRICITY":0.00019824,"INCLINATION":87.9182,"RA_OF_ASC_NODE":268.0614,"ARG_OF_PERICENTER":94.47,"MEAN_ANOMALY":265.666,"EPHEMERIS_TYPE":0,"NORAD_CAT_ID":49287,"ELEMENT_SET_NO":999,"REV_AT_EPOCH":23452,"BSTAR":-0.00018131486,"MEAN_MOTION_DOT":-6.1e-7,"MEAN_MOTION_DDOT":0},{"OBJECT_NAME":"ONEWEB-0362","OBJECT_ID":"2021-090K","EPOCH":"2026-07-19T05:56:42.819648","CLASSIFICATION_TYPE":"U","MEAN_MOTION":13.19730196,"ECCENTRICITY":0.00024482,"INCLINATION":87.9188,"RA_OF_ASC_NODE":298.5941,"ARG_OF_PERICENTER":100.2855,"MEAN_ANOMALY":259.8554,"EPHEMERIS_TYPE":0,"NORAD_CAT_ID":49288,"ELEMENT_SET_NO":999,"REV_AT_EPOCH":23114,"BSTAR":0.00032583271,"MEAN_MOTION_DOT":0.00000143,"MEAN_MOTION_DDOT":0},{"OBJECT_NAME":"ONEWEB-0363","OBJECT_ID":"2021-090L","EPOCH":"2026-07-19T05:01:08.233248","CLASSIFICATION_TYPE":"U","MEAN_MOTION":13.20772809,"ECCENTRICITY":0.0001731,"INCLINATION":87.9184,"RA_OF_ASC_NODE":268.0587,"ARG_OF_PERICENTER":96.5153,"MEAN_ANOMALY":263.6177,"EPHEMERIS_TYPE":0,"NORAD_CAT_ID":49289,"ELEMENT_SET_NO":999,"REV_AT_EPOCH":23453,"BSTAR":0.00029172048,"MEAN_MOTION_DOT":0.00000132,"MEAN_MOTION_DDOT":0},{"OBJECT_NAME":"ONEWEB-0364","OBJECT_ID":"2021-090M","EPOCH":"2026-07-19T04:07:48.224352","CLASSIFICATION_TYPE":"U","MEAN_MOTION":13.20770304,"ECCENTRICITY":0.00021146,"INCLINATION":87.9179,"RA_OF_ASC_NODE":268.0737,"ARG_OF_PERICENTER":98.6255,"MEAN_ANOMALY":261.5118,"EPHEMERIS_TYPE":0,"NORAD_CAT_ID":49290,"ELEMENT_SET_NO":999,"REV_AT_EPOCH":23566,"BSTAR":0.000015328298,"MEAN_MOTION_DOT":1.9e-7,"MEAN_MOTION_DDOT":0},{"OBJECT_NAME":"ONEWEB-0365","OBJECT_ID":"2021-090N","EPOCH":"2026-07-19T06:10:22.609632","CLASSIFICATION_TYPE":"U","MEAN_MOTION":13.19726435,"ECCENTRICITY":0.00020698,"INCLINATION":87.9195,"RA_OF_ASC_NODE":298.5827,"ARG_OF_PERICENTER":102.1326,"MEAN_ANOMALY":258.0039,"EPHEMERIS_TYPE":0,"NORAD_CAT_ID":49291,"ELEMENT_SET_NO":999,"REV_AT_EPOCH":23065,"BSTAR":0.000090130349,"MEAN_MOTION_DOT":4.9e-7,"MEAN_MOTION_DDOT":0},{"OBJECT_NAME":"ONEWEB-0366","OBJECT_ID":"2021-090P","EPOCH":"2026-07-19T04:14:53.949120","CLASSIFICATION_TYPE":"U","MEAN_MOTION":13.14502392,"ECCENTRICITY":0.00020314,"INCLINATION":87.8964,"RA_OF_ASC_NODE":283.3328,"ARG_OF_PERICENTER":98.0521,"MEAN_ANOMALY":262.084,"EPHEMERIS_TYPE":0,"NORAD_CAT_ID":49292,"ELEMENT_SET_NO":999,"REV_AT_EPOCH":23176,"BSTAR":-0.00055651855,"MEAN_MOTION_DOT":-0.00000194,"MEAN_MOTION_DDOT":0},{"OBJECT_NAME":"ONEWEB-0367","OBJECT_ID":"2021-090Q","EPOCH":"2026-07-19T04:59:54.731040","CLASSIFICATION_TYPE":"U","MEAN_MOTION":13.20773661,"ECCENTRICITY":0.00022015,"INCLINATION":87.9181,"RA_OF_ASC_NODE":268.0602,"ARG_OF_PERICENTER":100.438,"MEAN_ANOMALY":259.7002,"EPHEMERIS_TYPE":0,"NORAD_CAT_ID":49293,"ELEMENT_SET_NO":999,"REV_AT_EPOCH":23405,"BSTAR":0.00030120473,"MEAN_MOTION_DOT":0.00000135,"MEAN_MOTION_DDOT":0},{"OBJECT_NAME":"ONEWEB-0368","OBJECT_ID":"2021-090R","EPOCH":"2026-07-19T04:22:21.717984","CLASSIFICATION_TYPE":"U","MEAN_MOTION":13.20772681,"ECCENTRICITY":0.00016407,"INCLINATION":87.9177,"RA_OF_ASC_NODE":268.0722,"ARG_OF_PERICENTER":121.3499,"MEAN_ANOMALY":238.7796,"EPHEMERIS_TYPE":0,"NORAD_CAT_ID":49294,"ELEMENT_SET_NO":999,"REV_AT_EPOCH":23520,"BSTAR":-0.000082414619,"MEAN_MOTION_DOT":-2.1e-7,"MEAN_MOTION_DDOT":0},{"OBJECT_NAME":"ONEWEB-0369","OBJECT_ID":"2021-090S","EPOCH":"2026-07-19T06:03:33.185952","CLASSIFICATION_TYPE":"U","MEAN_MOTION":13.19726686,"ECCENTRICITY":0.00019934,"INCLINATION":87.9183,"RA_OF_ASC_NODE":298.5888,"ARG_OF_PERICENTER":103.1233,"MEAN_ANOMALY":257.0123,"EPHEMERIS_TYPE":0,"NORAD_CAT_ID":49295,"ELEMENT_SET_NO":999,"REV_AT_EPOCH":23064,"BSTAR":0.000005651228,"MEAN_MOTION_DOT":1.5e-7,"MEAN_MOTION_DDOT":0},{"OBJECT_NAME":"ONEWEB-0370","OBJECT_ID":"2021-090T","EPOCH":"2026-07-19T05:13:15.646080","CLASSIFICATION_TYPE":"U","MEAN_MOTION":13.20772232,"ECCENTRICITY":0.00022805,"INCLINATION":87.9178,"RA_OF_ASC_NODE":268.0573,"ARG_OF_PERICENTER":92.9646,"MEAN_ANOMALY":267.1749,"EPHEMERIS_TYPE":0,"NORAD_CAT_ID":49296,"ELEMENT_SET_NO":999,"REV_AT_EPOCH":23409,"BSTAR":0.00026328013,"MEAN_MOTION_DOT":0.0000012,"MEAN_MOTION_DDOT":0},{"OBJECT_NAME":"ONEWEB-0371","OBJECT_ID":"2021-090U","EPOCH":"2026-07-19T06:14:55.746816","CLASSIFICATION_TYPE":"U","MEAN_MOTION":13.19725292,"ECCENTRICITY":0.00020644,"INCLINATION":87.9194,"RA_OF_ASC_NODE":298.5818,"ARG_OF_PERICENTER":100.259,"MEAN_ANOMALY":259.8776,"EPHEMERIS_TYPE":0,"NORAD_CAT_ID":49297,"ELEMENT_SET_NO":999,"REV_AT_EPOCH":23068,"BSTAR":0.000058852917,"MEAN_MOTION_DOT":3.7e-7,"MEAN_MOTION_DDOT":0},{"OBJECT_NAME":"ONEWEB-0372","OBJECT_ID":"2021-090V","EPOCH":"2026-07-19T04:58:30.619776","CLASSIFICATION_TYPE":"U","MEAN_MOTION":13.20770017,"ECCENTRICITY":0.00020651,"INCLINATION":87.9185,"RA_OF_ASC_NODE":268.0621,"ARG_OF_PERICENTER":98.921,"MEAN_ANOMALY":261.2157,"EPHEMERIS_TYPE":0,"NORAD_CAT_ID":49298,"ELEMENT_SET_NO":999,"REV_AT_EPOCH":23406,"BSTAR":0.00015717342,"MEAN_MOTION_DOT":7.7e-7,"MEAN_MOTION_DDOT":0},{"OBJECT_NAME":"ONEWEB-0373","OBJECT_ID":"2021-090W","EPOCH":"2026-07-19T05:35:03.631488","CLASSIFICATION_TYPE":"U","MEAN_MOTION":13.2077133,"ECCENTRICITY":0.00020412,"INCLINATION":87.9178,"RA_OF_ASC_NODE":268.0563,"ARG_OF_PERICENTER":96.0104,"MEAN_ANOMALY":264.1262,"EPHEMERIS_TYPE":0,"NORAD_CAT_ID":49299,"ELEMENT_SET_NO":999,"REV_AT_EPOCH":23525,"BSTAR":-0.00039008637,"MEAN_MOTION_DOT":-0.00000146,"MEAN_MOTION_DDOT":0},{"OBJECT_NAME":"ONEWEB-0374","OBJECT_ID":"2021-090X","EPOCH":"2026-07-19T05:46:13.307520","CLASSIFICATION_TYPE":"U","MEAN_MOTION":13.14502898,"ECCENTRICITY":0.00014878,"INCLINATION":87.8969,"RA_OF_ASC_NODE":283.3121,"ARG_OF_PERICENTER":90.708,"MEAN_ANOMALY":269.4221,"EPHEMERIS_TYPE":0,"NORAD_CAT_ID":49300,"ELEMENT_SET_NO":999,"REV_AT_EPOCH":23177,"BSTAR":0.00009976296,"MEAN_MOTION_DOT":5e-7,"MEAN_MOTION_DDOT":0},{"OBJECT_NAME":"ONEWEB-0375","OBJECT_ID":"2021-090Y","EPOCH":"2026-07-19T05:18:05.738400","CLASSIFICATION_TYPE":"U","MEAN_MOTION":13.20771547,"ECCENTRICITY":0.00015768,"INCLINATION":87.9186,"RA_OF_ASC_NODE":268.0513,"ARG_OF_PERICENTER":85.7329,"MEAN_ANOMALY":274.3984,"EPHEMERIS_TYPE":0,"NORAD_CAT_ID":49301,"ELEMENT_SET_NO":999,"REV_AT_EPOCH":23475,"BSTAR":-0.00039189513,"MEAN_MOTION_DOT":-0.00000146,"MEAN_MOTION_DDOT":0},{"OBJECT_NAME":"ONEWEB-0376","OBJECT_ID":"2021-090Z","EPOCH":"2026-07-19T06:12:38.445120","CLASSIFICATION_TYPE":"U","MEAN_MOTION":13.19724944,"ECCENTRICITY":0.00020733,"INCLINATION":87.9192,"RA_OF_ASC_NODE":298.5822,"ARG_OF_PERICENTER":105.1647,"MEAN_ANOMALY":254.9715,"EPHEMERIS_TYPE":0,"NORAD_CAT_ID":49302,"ELEMENT_SET_NO":999,"REV_AT_EPOCH":23068,"BSTAR":-0.00040182761,"MEAN_MOTION_DOT":-0.00000148,"MEAN_MOTION_DDOT":0},{"OBJECT_NAME":"ONEWEB-0377","OBJECT_ID":"2021-090AA","EPOCH":"2026-07-19T04:58:53.044896","CLASSIFICATION_TYPE":"U","MEAN_MOTION":13.20768161,"ECCENTRICITY":0.00018562,"INCLINATION":87.919,"RA_OF_ASC_NODE":268.0561,"ARG_OF_PERICENTER":97.0002,"MEAN_ANOMALY":263.1342,"EPHEMERIS_TYPE":0,"NORAD_CAT_ID":49303,"ELEMENT_SET_NO":999,"REV_AT_EPOCH":23474,"BSTAR":0.0017546314,"MEAN_MOTION_DOT":0.00000726,"MEAN_MOTION_DDOT":0},{"OBJECT_NAME":"ONEWEB-0378","OBJECT_ID":"2021-090AB","EPOCH":"2026-07-19T05:28:00.800256","CLASSIFICATION_TYPE":"U","MEAN_MOTION":13.20772092,"ECCENTRICITY":0.00019091,"INCLINATION":87.9177,"RA_OF_ASC_NODE":268.0549,"ARG_OF_PERICENTER":98.4289,"MEAN_ANOMALY":261.706,"EPHEMERIS_TYPE":0,"NORAD_CAT_ID":49304,"ELEMENT_SET_NO":999,"REV_AT_EPOCH":23401,"BSTAR":0.000002220868,"MEAN_MOTION_DOT":1.4e-7,"MEAN_MOTION_DDOT":0},{"OBJECT_NAME":"ONEWEB-0379","OBJECT_ID":"2021-090AC","EPOCH":"2026-07-19T05:39:23.001696","CLASSIFICATION_TYPE":"U","MEAN_MOTION":13.14502415,"ECCENTRICITY":0.00018844,"INCLINATION":87.8968,"RA_OF_ASC_NODE":283.3232,"ARG_OF_PERICENTER":99.772,"MEAN_ANOMALY":260.3622,"EPHEMERIS_TYPE":0,"NORAD_CAT_ID":49305,"ELEMENT_SET_NO":999,"REV_AT_EPOCH":23177,"BSTAR":0.00042554386,"MEAN_MOTION_DOT":0.00000171,"MEAN_MOTION_DDOT":0}]}
